IDEFIX & ARIANE 42P R/B 
1 27422U 02021B   26030.73873225  .00000414  00000+0  17409-3 0  9992
2 27422  98.5834 329.8080 0010920 303.0965  56.9169 14.30996804238591
AQUA                    
1 27424U 02022A   26030.89672490  .00001472  00000+0  30418-3 0  9993
2 27424  98.4106 357.5938 0001779  60.7003 322.7874 14.61877598263212
CZ-4B R/B               
1 27432U 02024C   26030.74458001  .00000064  00000+0  55817-4 0  9995
2 27432  98.8921  84.3274 0050949 130.1722 339.4978 14.14540308223873
MIDORI II (ADEOS-II)    
1 27597U 02056A   26030.86072959  .00000442  00000+0  19146-3 0  9993
2 27597  98.7704 349.0937 0002061  96.1274 264.0143 14.29254077204894
H-2A R/B                
1 27601U 02056E   26030.87431532  .00000455  00000+0  17446-3 0  9991
2 27601  98.3134 352.6957 0069063 274.4826 104.6809 14.33731271208695
CZ-4B R/B               
1 28059U 03049C   26030.97344459  .00000615  00000+0  15267-3 0  9991
2 28059  98.6834  24.4116 0047997 348.2242  11.7828 14.54974692181113
CZ-2C R/B               
1 28222U 04012C   26030.94720358  .00045370  00000+0  55203-3 0  9998
2 28222  97.7332  92.7770 0016676  90.4618 269.8549 15.60249365198388
SL-16 R/B               
1 28353U 04021B   26030.90857039 -.00000205  00000+0 -81995-4 0  9994
2 28353  71.0018 311.7817 0002673 104.7900 255.3519 14.14589940117494
CZ-4B R/B               
1 28415U 04035C   26030.81325334  .00008892  00000+0  31911-3 0  9996
2 28415  97.3558  65.5205 0034350 102.5913 257.9172 15.28349242174126
CZ-2C R/B               
1 28480U 04046B   26030.76155072  .00000245  00000+0  10691-3 0  9990
2 28480  98.1999 308.1000 0138214 267.0750  91.4608 14.26977277103090
ARIANE 5 R/B            
1 28499U 04049H   26030.90530193  .00001150  00000+0  13278-3 0  9990
2 28499  98.2560 197.9649 0085430 113.2566 247.7670 14.85180646140183
CZ-2D R/B               
1 28738U 05024B   26030.95424687  .00037766  00000+0  52539-3 0  9990
2 28738  97.3613  44.8135 0006553 138.6312 221.5440 15.56860346133905
