CCSDS_OMM_VERS = 2.0
CREATION_DATE  = 
ORIGINATOR     = 

OBJECT_NAME    = IDEFIX & ARIANE 42P R/B
OBJECT_ID      = 2002-021B
CENTER_NAME    = EARTH
REF_FRAME      = TEME
TIME_SYSTEM    = UTC
MEAN_ELEMENT_THEORY = SGP/SGP4

EPOCH          = 2026-01-30T17:43:46.466400
MEAN_MOTION    = 14.30996804
ECCENTRICITY   = .00109207
INCLINATION    = 98.5834
RA_OF_ASC_NODE = 329.8080
ARG_OF_PERICENTER = 303.0965
MEAN_ANOMALY   = 56.9169

EPHEMERIS_TYPE = 0
CLASSIFICATION_TYPE = U
NORAD_CAT_ID   = 27422
ELEMENT_SET_NO = 999
REV_AT_EPOCH   = 23859
BSTAR          = .17409213E-3
MEAN_MOTION_DOT = .414E-5
MEAN_MOTION_DDOT = 0

CCSDS_OMM_VERS = 2.0
CREATION_DATE  = 
ORIGINATOR     = 

OBJECT_NAME    = AQUA
OBJECT_ID      = 2002-022A
CENTER_NAME    = EARTH
REF_FRAME      = TEME
TIME_SYSTEM    = UTC
MEAN_ELEMENT_THEORY = SGP/SGP4

EPOCH          = 2026-01-30T21:31:17.031360
MEAN_MOTION    = 14.61877598
ECCENTRICITY   = .00017793
INCLINATION    = 98.4106
RA_OF_ASC_NODE = 357.5938
ARG_OF_PERICENTER = 60.7003
MEAN_ANOMALY   = 322.7874

EPHEMERIS_TYPE = 0
CLASSIFICATION_TYPE = U
NORAD_CAT_ID   = 27424
ELEMENT_SET_NO = 999
REV_AT_EPOCH   = 26321
BSTAR          = .30418173E-3
MEAN_MOTION_DOT = .1472E-4
MEAN_MOTION_DDOT = 0

CCSDS_OMM_VERS = 2.0
CREATION_DATE  = 
ORIGINATOR     = 

OBJECT_NAME    = CZ-4B R/B
OBJECT_ID      = 2002-024C
CENTER_NAME    = EARTH
REF_FRAME      = TEME
TIME_SYSTEM    = UTC
MEAN_ELEMENT_THEORY = SGP/SGP4

EPOCH          = 2026-01-30T17:52:11.712864
MEAN_MOTION    = 14.14540308
ECCENTRICITY   = .00509499
INCLINATION    = 98.8921
RA_OF_ASC_NODE = 84.3274
ARG_OF_PERICENTER = 130.1722
MEAN_ANOMALY   = 339.4978

EPHEMERIS_TYPE = 0
CLASSIFICATION_TYPE = U
NORAD_CAT_ID   = 27432
ELEMENT_SET_NO = 999
REV_AT_EPOCH   = 22387
BSTAR          = .5581667E-4
MEAN_MOTION_DOT = .64E-6
MEAN_MOTION_DDOT = 0

CCSDS_OMM_VERS = 2.0
CREATION_DATE  = 
ORIGINATOR     = 

OBJECT_NAME    = MIDORI II (ADEOS-II)
OBJECT_ID      = 2002-056A
CENTER_NAME    = EARTH
REF_FRAME      = TEME
TIME_SYSTEM    = UTC
MEAN_ELEMENT_THEORY = SGP/SGP4

EPOCH          = 2026-01-30T20:39:27.036576
MEAN_MOTION    = 14.29254077
ECCENTRICITY   = .0002061
INCLINATION    = 98.7704
RA_OF_ASC_NODE = 349.0937
ARG_OF_PERICENTER = 96.1274
MEAN_ANOMALY   = 264.0143

EPHEMERIS_TYPE = 0
CLASSIFICATION_TYPE = U
NORAD_CAT_ID   = 27597
ELEMENT_SET_NO = 999
REV_AT_EPOCH   = 20489
BSTAR          = .19145881E-3
MEAN_MOTION_DOT = .442E-5
MEAN_MOTION_DDOT = 0

CCSDS_OMM_VERS = 2.0
CREATION_DATE  = 
ORIGINATOR     = 

OBJECT_NAME    = H-2A R/B
OBJECT_ID      = 2002-056E
CENTER_NAME    = EARTH
REF_FRAME      = TEME
TIME_SYSTEM    = UTC
MEAN_ELEMENT_THEORY = SGP/SGP4

EPOCH          = 2026-01-30T20:59:00.843648
MEAN_MOTION    = 14.33731271
ECCENTRICITY   = .00690635
INCLINATION    = 98.3134
RA_OF_ASC_NODE = 352.6957
ARG_OF_PERICENTER = 274.4826
MEAN_ANOMALY   = 104.6809

EPHEMERIS_TYPE = 0
CLASSIFICATION_TYPE = U
NORAD_CAT_ID   = 27601
ELEMENT_SET_NO = 999
REV_AT_EPOCH   = 20869
BSTAR          = .17446383E-3
MEAN_MOTION_DOT = .455E-5
MEAN_MOTION_DDOT = 0

CCSDS_OMM_VERS = 2.0
CREATION_DATE  = 
ORIGINATOR     = 

OBJECT_NAME    = CZ-4B R/B
OBJECT_ID      = 2003-049C
CENTER_NAME    = EARTH
REF_FRAME      = TEME
TIME_SYSTEM    = UTC
MEAN_ELEMENT_THEORY = SGP/SGP4

EPOCH          = 2026-01-30T23:21:45.612576
MEAN_MOTION    = 14.54974692
ECCENTRICITY   = .00479975
INCLINATION    = 98.6834
RA_OF_ASC_NODE = 24.4116
ARG_OF_PERICENTER = 348.2242
MEAN_ANOMALY   = 11.7828

EPHEMERIS_TYPE = 0
CLASSIFICATION_TYPE = U
NORAD_CAT_ID   = 28059
ELEMENT_SET_NO = 999
REV_AT_EPOCH   = 18111
BSTAR          = .15266641E-3
MEAN_MOTION_DOT = .615E-5
MEAN_MOTION_DDOT = 0

CCSDS_OMM_VERS = 2.0
CREATION_DATE  = 
ORIGINATOR     = 

OBJECT_NAME    = CZ-2C R/B
OBJECT_ID      = 2004-012C
CENTER_NAME    = EARTH
REF_FRAME      = TEME
TIME_SYSTEM    = UTC
MEAN_ELEMENT_THEORY = SGP/SGP4

EPOCH          = 2026-01-30T22:43:58.389312
MEAN_MOTION    = 15.60249365
ECCENTRICITY   = .00166765
INCLINATION    = 97.7332
RA_OF_ASC_NODE = 92.7770
ARG_OF_PERICENTER = 90.4618
MEAN_ANOMALY   = 269.8549

EPHEMERIS_TYPE = 0
CLASSIFICATION_TYPE = U
NORAD_CAT_ID   = 28222
ELEMENT_SET_NO = 999
REV_AT_EPOCH   = 19838
BSTAR          = .55202664E-3
MEAN_MOTION_DOT = .4537E-3
MEAN_MOTION_DDOT = 0

CCSDS_OMM_VERS = 2.0
CREATION_DATE  = 
ORIGINATOR     = 

OBJECT_NAME    = SL-16 R/B
OBJECT_ID      = 2004-021B
CENTER_NAME    = EARTH
REF_FRAME      = TEME
TIME_SYSTEM    = UTC
MEAN_ELEMENT_THEORY = SGP/SGP4

EPOCH          = 2026-01-30T21:48:20.481696
MEAN_MOTION    = 14.14589940
ECCENTRICITY   = .00026732
INCLINATION    = 71.0018
RA_OF_ASC_NODE = 311.7817
ARG_OF_PERICENTER = 104.7900
MEAN_ANOMALY   = 255.3519

EPHEMERIS_TYPE = 0
CLASSIFICATION_TYPE = U
NORAD_CAT_ID   = 28353
ELEMENT_SET_NO = 999
REV_AT_EPOCH   = 11749
BSTAR          = -.81994631E-4
MEAN_MOTION_DOT = -.205E-5
MEAN_MOTION_DDOT = 0

CCSDS_OMM_VERS = 2.0
CREATION_DATE  = 
ORIGINATOR     = 

OBJECT_NAME    = CZ-4B R/B
OBJECT_ID      = 2004-035C
CENTER_NAME    = EARTH
REF_FRAME      = TEME
TIME_SYSTEM    = UTC
MEAN_ELEMENT_THEORY = SGP/SGP4

EPOCH          = 2026-01-30T19:31:05.088576
MEAN_MOTION    = 15.28349242
ECCENTRICITY   = .00343509
INCLINATION    = 97.3558
RA_OF_ASC_NODE = 65.5205
ARG_OF_PERICENTER = 102.5913
MEAN_ANOMALY   = 257.9172

EPHEMERIS_TYPE = 0
CLASSIFICATION_TYPE = U
NORAD_CAT_ID   = 28415
ELEMENT_SET_NO = 999
REV_AT_EPOCH   = 17412
BSTAR          = .31911105E-3
MEAN_MOTION_DOT = .8892E-4
MEAN_MOTION_DDOT = 0

CCSDS_OMM_VERS = 2.0
CREATION_DATE  = 
ORIGINATOR     = 

OBJECT_NAME    = CZ-2C R/B
OBJECT_ID      = 2004-046B
CENTER_NAME    = EARTH
REF_FRAME      = TEME
TIME_SYSTEM    = UTC
MEAN_ELEMENT_THEORY = SGP/SGP4

EPOCH          = 2026-01-30T18:16:37.982208
MEAN_MOTION    = 14.26977277
ECCENTRICITY   = .0138214
INCLINATION    = 98.1999
RA_OF_ASC_NODE = 308.1000
ARG_OF_PERICENTER = 267.0750
MEAN_ANOMALY   = 91.4608

EPHEMERIS_TYPE = 0
CLASSIFICATION_TYPE = U
NORAD_CAT_ID   = 28480
ELEMENT_SET_NO = 999
REV_AT_EPOCH   = 10309
BSTAR          = .1069124E-3
MEAN_MOTION_DOT = .245E-5
MEAN_MOTION_DDOT = 0

CCSDS_OMM_VERS = 2.0
CREATION_DATE  = 
ORIGINATOR     = 

OBJECT_NAME    = ARIANE 5 R/B
OBJECT_ID      = 2004-049H
CENTER_NAME    = EARTH
REF_FRAME      = TEME
TIME_SYSTEM    = UTC
MEAN_ELEMENT_THEORY = SGP/SGP4

EPOCH          = 2026-01-30T21:43:38.086752
MEAN_MOTION    = 14.85180646
ECCENTRICITY   = .00854307
INCLINATION    = 98.2560
RA_OF_ASC_NODE = 197.9649
ARG_OF_PERICENTER = 113.2566
MEAN_ANOMALY   = 247.7670

EPHEMERIS_TYPE = 0
CLASSIFICATION_TYPE = U
NORAD_CAT_ID   = 28499
ELEMENT_SET_NO = 999
REV_AT_EPOCH   = 14018
BSTAR          = .13277679E-3
MEAN_MOTION_DOT = .115E-4
MEAN_MOTION_DDOT = 0

CCSDS_OMM_VERS = 2.0
CREATION_DATE  = 
ORIGINATOR     = 

OBJECT_NAME    = CZ-2D R/B
OBJECT_ID      = 2005-024B
CENTER_NAME    = EARTH
REF_FRAME      = TEME
TIME_SYSTEM    = UTC
MEAN_ELEMENT_THEORY = SGP/SGP4

EPOCH          = 2026-01-30T22:54:06.929568
MEAN_MOTION    = 15.56860346
ECCENTRICITY   = .0006553
INCLINATION    = 97.3613
RA_OF_ASC_NODE = 44.8135
ARG_OF_PERICENTER = 138.6312
MEAN_ANOMALY   = 221.5440

EPHEMERIS_TYPE = 0
CLASSIFICATION_TYPE = U
NORAD_CAT_ID   = 28738
ELEMENT_SET_NO = 999
REV_AT_EPOCH   = 13390
BSTAR          = .52538788E-3
MEAN_MOTION_DOT = .37766E-3
MEAN_MOTION_DDOT = 0

